stk.v.9.0

# WrittenBy    STK_v9.2.1

BEGIN Ephemeris

NumberOfEphemerisPoints 91

ScenarioEpoch            19 May 2020 04:00:00.000

# Epoch in JDate format: 2458988.66666666666667
# Epoch in YYDDD format:   20140.16666666666667


InterpolationMethod     Lagrange

InterpolationSamplesM1      5

CentralBody             Earth

CoordinateSystem        ICRF 

# Time of first point: 19 May 2020 04:00:00.000000000 UTCG = 2458988.66666666666667 JDate = 20140.16666666666667 YYDDD

EphemerisTimePosVel

0.00000000000000e+000 -4.26538704667828e+006 -3.28557689679584e+006 -4.36010780692858e+006 5.97713133276416e+003 -2.81038395887390e+003 -3.72950547938867e+003
6.00000000000000e+001 -3.89781755299067e+006 -3.44699244170598e+006 -4.57431346993062e+006 6.27077897559319e+003 -2.56819927609451e+003 -3.40811555023051e+003
1.20000000000000e+002 -3.51343463363715e+006 -3.59353921700297e+006 -4.76878760921365e+006 6.53737730820180e+003 -2.31493654078014e+003 -3.07202454882215e+003
1.80000000000000e+002 -3.11389634304280e+006 -3.72458508604122e+006 -4.94269135111561e+006 6.77577634571077e+003 -2.05168821406224e+003 -2.72268222005092e+003
2.40000000000000e+002 -2.70092610906390e+006 -3.83956477608850e+006 -5.09527455338438e+006 6.98494774227232e+003 -1.77958983040664e+003 -2.36159546904947e+003
3.00000000000000e+002 -2.27630529889808e+006 -3.93798231665739e+006 -5.22587904095294e+006 7.16398922689000e+003 -1.49981509943038e+003 -1.99032186108718e+003
3.60000000000000e+002 -1.84186553507022e+006 -4.01941317889806e+006 -5.33394144500950e+006 7.31212849540853e+003 -1.21357084304815e+003 -1.61046290293657e+003
4.20000000000000e+002 -1.39948079463957e+006 -4.08350610682416e+006 -5.41899563311632e+006 7.42872654188533e+003 -9.22091789787298e+002 -1.22365713469593e+003
4.80000000000000e+002 -9.51059325708505e+005 -4.12998463247260e+006 -5.48067471989463e+006 7.51328041497375e+003 -6.26635248726164e+002 -8.31573061866873e+002
5.40000000000000e+002 -4.98535416101533e+005 -4.15864826846153e+006 -5.51871264960257e+006 7.56542538742821e+003 -3.28475686030268e+002 -4.35901958174679e+002
6.00000000000000e+002 -4.38610497206151e+004 -4.16937337280249e+006 -5.53294534377957e+006 7.58493652937288e+003 -2.88992274804655e+001 -3.83505701767813e+001
6.60000000000000e+002 4.11002513432364e+005 -4.16211368223605e+006 -5.52331140900681e+006 7.57172967854764e+003 2.70801889293188e+002 3.59366244871549e+002
7.20000000000000e+002 8.64093197246034e+005 -4.13690051179070e+006 -5.48985240173067e+006 7.52586180334611e+003 5.69334888941317e+002 7.55532916137407e+002
7.80000000000000e+002 1.31345657301032e+006 -4.09384261970391e+006 -5.43271264900701e+006 7.44753075707972e+003 8.65412034844605e+002 1.14844055940852e+003
8.40000000000000e+002 1.75715428993976e+006 -4.03312573828823e+006 -5.35213862593939e+006 7.33707442452779e+003 1.15775618382836e+003 1.53639434844843e+003
9.00000000000000e+002 2.19327243634396e+006 -3.95501177276585e+006 -5.24847789249668e+006 7.19496926445511e+003 1.44510629518172e+003 1.91772082571196e+003
9.60000000000000e+002 2.61992979537878e+006 -3.85983767152775e+006 -5.12217759429628e+006 7.02182825438388e+003 1.72622287021814e+003 2.29077512088571e+003
1.02000000000000e+003 3.03528595976668e+006 -3.74801397269038e+006 -4.97378253381970e+006 6.81839824648535e+003 1.99989329891329e+003 2.65394804611624e+003
1.08000000000000e+003 3.43754927048315e+006 -3.62002303321953e+006 -4.80393282038059e+006 6.58555674599660e+003 2.26493709055735e+003 3.00567303732013e+003
1.14000000000000e+003 3.82498454516499e+006 -3.47641694826012e+006 -4.61336110898202e+006 6.32430812605908e+003 2.52021096585917e+003 3.34443291163438e+003
1.20000000000000e+003 4.19592056290394e+006 -3.31781516964685e+006 -4.40288943997350e+006 6.03577929530611e+003 2.76461378853711e+003 3.66876641185855e+003
1.26000000000000e+003 4.54875727313931e+006 -3.14490183386867e+006 -4.17342569313995e+006 5.72121483688773e+003 2.99709131512395e+003 3.97727450965875e+003
1.32000000000000e+003 4.88197269755400e+006 -2.95842281101267e+006 -3.92595967151806e+006 5.38197163990067e+003 3.21664074249741e+003 4.26862644034442e+003
1.38000000000000e+003 5.19412949520195e+006 -2.75918248741722e+006 -3.66155883183274e+006 5.01951304638126e+003 3.42231503352018e+003 4.54156544318663e+003
1.44000000000000e+003 5.48388116254830e+006 -2.54804029591231e+006 -3.38136367997056e+006 4.63540253910833e+003 3.61322700213069e+003 4.79491418251658e+003
1.50000000000000e+003 5.74997784167787e+006 -2.32590700861428e+006 -3.08658285135220e+006 4.23129699744417e+003 3.78855314026340e+003 5.02757982622029e+003
1.56000000000000e+003 5.99127171161813e+006 -2.09374080826594e+006 -2.77848789742465e+006 3.80893955030477e+003 3.94753717009085e+003 5.23855875972315e+003
1.62000000000000e+003 6.20672193952076e+006 -1.85254315506870e+006 -2.45840780076226e+006 3.37015205708849e+003 4.08949330626489e+003 5.42694091513016e+003
1.68000000000000e+003 6.39539917034482e+006 -1.60335446683528e+006 -2.12772324243571e+006 2.91682724899683e+003 4.21380921408518e+003 5.59191369684810e+003
1.74000000000000e+003 6.55648953567492e+006 -1.34724963109682e+006 -1.78786064637704e+006 2.45092056464632e+003 4.31994865083463e+003 5.73276548675617e+003
1.80000000000000e+003 6.68929816438225e+006 -1.08533336852324e+006 -1.44028602643060e+006 1.97444171518894e+003 4.40745377888855e+003 5.84888871380536e+003
1.86000000000000e+003 6.79325217998498e+006 -8.18735467656869e+005 -1.08649866263101e+006 1.48944601532523e+003 4.47594714061946e+003 5.93978247480573e+003
1.92000000000000e+003 6.86790317177885e+006 -5.48605911514606e+005 -7.28024633985802e+005 9.98025517604360e+002 4.52513328657892e+003 6.00505469509670e+003
1.98000000000000e+003 6.91292912907857e+006 -2.76109917080217e+005 -3.66410235659342e+005 5.02299988253671e+002 4.55480004993316e+003 6.04442381978019e+003
2.04000000000000e+003 6.92813583022655e+006 -2.42290908418014e+003 -3.21530895341747e+003 4.40776346388793e+000 4.56481946165500e+003 6.05772002822134e+003
2.10000000000000e+003 6.91345768037749e+006 2.71274550248082e+005 3.59993487144124e+005 -4.93503474428063e+002 4.55514830252447e+003 6.04488596657810e+003
2.16000000000000e+003 6.86895799444495e+006 5.43801853608792e+005 7.21649433819129e+005 -9.89285961071302e+002 4.52582828955703e+003 6.00597699519982e+003
2.22000000000000e+003 6.79482872398936e+006 8.13983441214896e+005 1.08019251054899e+006 -1.48080111458705e+003 4.47698589605521e+003 5.94116094982768e+003
2.28000000000000e+003 6.69138962922564e+006 1.08065387164238e+006 1.43407612432707e+006 -1.96592876044561e+003 4.40883180605984e+003 5.85071741762707e+003
2.34000000000000e+003 6.55908689972195e+006 1.34266284901456e+006 1.78177378096688e+006 -2.44257627694233e+003 4.32166000555420e+003 5.73503653117474e+003
2.40000000000000e+003 6.39849122973930e+006 1.59888018485930e+006 2.12178566970901e+006 -2.90868762182318e+003 4.21584651434118e+003 5.59461728560292e+003
2.46000000000000e+003 6.21029535651405e+006 1.84820067323200e+006 2.45264513272788e+006 -3.36225220112304e+003 4.09184776406355e+003 5.43006538615958e+003
2.52000000000000e+003 5.99531107210216e+006 2.08954885807521e+006 2.77292499163154e+006 -3.80131354196059e+003 3.95019862936388e+003 5.24209063546937e+003
2.58000000000000e+003 5.75446572167466e+006 2.32188367225062e+006 3.08124370366517e+006 -4.22397773187930e+003 3.79151012067674e+003 5.03150387176544e+003
2.64000000000000e+003 5.48879820336911e+006 2.54420292823290e+006 3.37627132106295e+006 -4.62842158833092e+003 3.61646674860545e+003 4.79921347129926e+003
2.70000000000000e+003 5.19945448695197e+006 2.75554764109424e+006 3.65673522784245e+006 -5.01290052306215e+003 3.42582357125231e+003 4.54622143001551e+003
2.76000000000000e+003 4.88768267062222e+006 2.95500616513261e+006 3.92142562929562e+006 -5.37575606748092e+003 3.22040293723869e+003 4.27361904139377e+003
2.82000000000000e+003 4.55482759727908e+006 3.14171812629976e+006 4.16920077049707e+006 -5.71542302654140e+003 3.00109093846432e+003 3.98258218910101e+003
2.88000000000000e+003 4.20232505347672e+006 3.31487813346660e+006 4.39899186131958e+006 -6.03043623028895e+003 2.76883358790667e+003 3.67436627476021e+003
2.94000000000000e+003 3.83169557608909e+006 3.47373925251698e+006 4.60980768671222e+006 -6.31943685394200e+003 2.52463273894803e+003 3.35030080271434e+003
3.00000000000000e+003 3.44453789340014e+006 3.61761622828440e+006 4.80073888235477e+006 -6.58117827924889e+003 2.26954176383215e+003 3.01178364514471e+003
3.06000000000000e+003 3.04252202891158e+006 3.74588844043343e+006 4.97096185724493e+006 -6.81453147183636e+003 2.00466100989182e+003 2.66027501228128e+003
3.12000000000000e+003 2.62738209761525e+006 3.85800258053580e+006 5.11974234629821e+006 -7.01848985135422e+003 1.73113305314712e+003 2.29729115371481e+003
3.18000000000000e+003 2.20090882580371e+006 3.95347503879318e+006 5.24643857763604e+006 -7.19217363340866e+003 1.45013776974816e+003 1.92439781798046e+003
3.24000000000000e+003 1.76494182668530e+006 4.03189399011160e+006 5.35050404090005e+006 -7.33483362455511e+003 1.16288724652191e+003 1.54320349862532e+003
3.30000000000000e+003 1.32136166512298e+006 4.09292117052902e+006 5.43148984465108e+006 -7.44585445398050e+003 8.70620552576696e+002 1.15535249589320e+003
3.36000000000000e+003 8.72081745726371e+005 4.13629333633338e+006 5.48904665268422e+006 -7.52475722793534e+003 5.74598394517278e+002 7.62517823955554e+002
3.42000000000000e+003 4.19040059287814e+005 4.16182339957720e+006 5.52292619090757e+006 -7.57120159546509e+003 2.76097678325618e+002 3.66393994283429e+002
3.48000000000000e+003 -3.58091768351677e+004 4.16940123509047e+006 5.53298231828455e+006 -7.58498721653063e+003 -2.35939986352246e+001 -3.13102937101944e+001
3.54000000000000e+003 -4.90503948331553e+005 4.15899415551101e+006 5.51917165722044e+006 -7.56605462618475e+003 -3.23183901734974e+002 -4.28879523228477e+002
END Ephemeris
